CCSDS_OMM_VERS = 2.0
CREATION_DATE  = 
ORIGINATOR     = 

OBJECT_NAME    = IDEFIX & ARIANE 42P R/B
OBJECT_ID      = 2002-021B
CENTER_NAME    = EARTH
REF_FRAME      = TEME
TIME_SYSTEM    = UTC
MEAN_ELEMENT_THEORY = SGP/SGP4

EPOCH          = 2026-03-01T10:55:16.168800
MEAN_MOTION    = 14.31019250
ECCENTRICITY   = .0011107
INCLINATION    = 98.5861
RA_OF_ASC_NODE = 359.1602
ARG_OF_PERICENTER = 207.2518
MEAN_ANOMALY   = 152.8083

EPHEMERIS_TYPE = 0
CLASSIFICATION_TYPE = U
NORAD_CAT_ID   = 27422
ELEMENT_SET_NO = 999
REV_AT_EPOCH   = 24284
BSTAR          = .1391E-3
MEAN_MOTION_DOT = .322E-5
MEAN_MOTION_DDOT = 0

CCSDS_OMM_VERS = 2.0
CREATION_DATE  = 
ORIGINATOR     = 

OBJECT_NAME    = AQUA
OBJECT_ID      = 2002-022A
CENTER_NAME    = EARTH
REF_FRAME      = TEME
TIME_SYSTEM    = UTC
MEAN_ELEMENT_THEORY = SGP/SGP4

EPOCH          = 2026-03-01T11:32:48.957216
MEAN_MOTION    = 14.61953163
ECCENTRICITY   = .0000725
INCLINATION    = 98.4159
RA_OF_ASC_NODE = 27.6975
ARG_OF_PERICENTER = 52.8383
MEAN_ANOMALY   = 58.4881

EPHEMERIS_TYPE = 0
CLASSIFICATION_TYPE = U
NORAD_CAT_ID   = 27424
ELEMENT_SET_NO = 999
REV_AT_EPOCH   = 26753
BSTAR          = .25846E-3
MEAN_MOTION_DOT = .1245E-4
MEAN_MOTION_DDOT = 0

CCSDS_OMM_VERS = 2.0
CREATION_DATE  = 
ORIGINATOR     = 

OBJECT_NAME    = CZ-4B R/B
OBJECT_ID      = 2002-024C
CENTER_NAME    = EARTH
REF_FRAME      = TEME
TIME_SYSTEM    = UTC
MEAN_ELEMENT_THEORY = SGP/SGP4

EPOCH          = 2026-03-01T03:51:46.981152
MEAN_MOTION    = 14.14545846
ECCENTRICITY   = .00508539
INCLINATION    = 98.8859
RA_OF_ASC_NODE = 113.6099
ARG_OF_PERICENTER = 48.1732
MEAN_ANOMALY   = 16.6442

EPHEMERIS_TYPE = 0
CLASSIFICATION_TYPE = U
NORAD_CAT_ID   = 27432
ELEMENT_SET_NO = 999
REV_AT_EPOCH   = 22803
BSTAR          = .42748276E-4
MEAN_MOTION_DOT = .39E-6
MEAN_MOTION_DDOT = 0

CCSDS_OMM_VERS = 2.0
CREATION_DATE  = 
ORIGINATOR     = 

OBJECT_NAME    = MIDORI II (ADEOS-II)
OBJECT_ID      = 2002-056A
CENTER_NAME    = EARTH
REF_FRAME      = TEME
TIME_SYSTEM    = UTC
MEAN_ELEMENT_THEORY = SGP/SGP4

EPOCH          = 2026-03-01T11:21:17.555040
MEAN_MOTION    = 14.29277563
ECCENTRICITY   = .0001873
INCLINATION    = 98.7754
RA_OF_ASC_NODE = 18.8948
ARG_OF_PERICENTER = 54.8868
MEAN_ANOMALY   = 305.2489

EPHEMERIS_TYPE = 0
CLASSIFICATION_TYPE = U
NORAD_CAT_ID   = 27597
ELEMENT_SET_NO = 999
REV_AT_EPOCH   = 20912
BSTAR          = .1497E-3
MEAN_MOTION_DOT = .335E-5
MEAN_MOTION_DDOT = 0

CCSDS_OMM_VERS = 2.0
CREATION_DATE  = 
ORIGINATOR     = 

OBJECT_NAME    = H-2A R/B
OBJECT_ID      = 2002-056E
CENTER_NAME    = EARTH
REF_FRAME      = TEME
TIME_SYSTEM    = UTC
MEAN_ELEMENT_THEORY = SGP/SGP4

EPOCH          = 2026-03-01T11:34:01.299936
MEAN_MOTION    = 14.33754373
ECCENTRICITY   = .0069986
INCLINATION    = 98.3187
RA_OF_ASC_NODE = 21.1607
ARG_OF_PERICENTER = 185.0960
MEAN_ANOMALY   = 285.0558

EPHEMERIS_TYPE = 0
CLASSIFICATION_TYPE = U
NORAD_CAT_ID   = 27601
ELEMENT_SET_NO = 999
REV_AT_EPOCH   = 21293
BSTAR          = .12481E-3
MEAN_MOTION_DOT = .315E-5
MEAN_MOTION_DDOT = 0

CCSDS_OMM_VERS = 2.0
CREATION_DATE  = 
ORIGINATOR     = 

OBJECT_NAME    = CZ-4B R/B
OBJECT_ID      = 2003-049C
CENTER_NAME    = EARTH
REF_FRAME      = TEME
TIME_SYSTEM    = UTC
MEAN_ELEMENT_THEORY = SGP/SGP4

EPOCH          = 2026-03-01T11:24:17.170272
MEAN_MOTION    = 14.55010740
ECCENTRICITY   = .0047004
INCLINATION    = 98.6871
RA_OF_ASC_NODE = 55.0583
ARG_OF_PERICENTER = 256.5231
MEAN_ANOMALY   = 103.0724

EPHEMERIS_TYPE = 0
CLASSIFICATION_TYPE = U
NORAD_CAT_ID   = 28059
ELEMENT_SET_NO = 999
REV_AT_EPOCH   = 18540
BSTAR          = .13076E-3
MEAN_MOTION_DOT = .519E-5
MEAN_MOTION_DDOT = 0

CCSDS_OMM_VERS = 2.0
CREATION_DATE  = 
ORIGINATOR     = 

OBJECT_NAME    = CZ-2C R/B
OBJECT_ID      = 2004-012C
CENTER_NAME    = EARTH
REF_FRAME      = TEME
TIME_SYSTEM    = UTC
MEAN_ELEMENT_THEORY = SGP/SGP4

EPOCH          = 2026-03-01T03:55:06.943584
MEAN_MOTION    = 15.63383863
ECCENTRICITY   = .00135211
INCLINATION    = 97.7259
RA_OF_ASC_NODE = 124.6543
ARG_OF_PERICENTER = 344.3810
MEAN_ANOMALY   = 15.7028

EPHEMERIS_TYPE = 0
CLASSIFICATION_TYPE = U
NORAD_CAT_ID   = 28222
ELEMENT_SET_NO = 999
REV_AT_EPOCH   = 20294
BSTAR          = .61200123E-3
MEAN_MOTION_DOT = .56738E-3
MEAN_MOTION_DDOT = 0

CCSDS_OMM_VERS = 2.0
CREATION_DATE  = 
ORIGINATOR     = 

OBJECT_NAME    = SL-16 R/B
OBJECT_ID      = 2004-021B
CENTER_NAME    = EARTH
REF_FRAME      = TEME
TIME_SYSTEM    = UTC
MEAN_ELEMENT_THEORY = SGP/SGP4

EPOCH          = 2026-02-28T23:18:58.922784
MEAN_MOTION    = 14.14599755
ECCENTRICITY   = .0003579
INCLINATION    = 70.9991
RA_OF_ASC_NODE = 250.7893
ARG_OF_PERICENTER = 28.1552
MEAN_ANOMALY   = 331.9764

EPHEMERIS_TYPE = 0
CLASSIFICATION_TYPE = U
NORAD_CAT_ID   = 28353
ELEMENT_SET_NO = 999
REV_AT_EPOCH   = 12160
BSTAR          = .52731E-5
MEAN_MOTION_DOT = -.38E-6
MEAN_MOTION_DDOT = 0

CCSDS_OMM_VERS = 2.0
CREATION_DATE  = 
ORIGINATOR     = 

OBJECT_NAME    = CZ-4B R/B
OBJECT_ID      = 2004-035C
CENTER_NAME    = EARTH
REF_FRAME      = TEME
TIME_SYSTEM    = UTC
MEAN_ELEMENT_THEORY = SGP/SGP4

EPOCH          = 2026-03-01T01:46:43.121280
MEAN_MOTION    = 15.28878305
ECCENTRICITY   = .00320927
INCLINATION    = 97.3516
RA_OF_ASC_NODE = 94.4208
ARG_OF_PERICENTER = 2.6552
MEAN_ANOMALY   = 357.4853

EPHEMERIS_TYPE = 0
CLASSIFICATION_TYPE = U
NORAD_CAT_ID   = 28415
ELEMENT_SET_NO = 999
REV_AT_EPOCH   = 17859
BSTAR          = .31692948E-3
MEAN_MOTION_DOT = .8955E-4
MEAN_MOTION_DDOT = 0

CCSDS_OMM_VERS = 2.0
CREATION_DATE  = 
ORIGINATOR     = 

OBJECT_NAME    = CZ-2C R/B
OBJECT_ID      = 2004-046B
CENTER_NAME    = EARTH
REF_FRAME      = TEME
TIME_SYSTEM    = UTC
MEAN_ELEMENT_THEORY = SGP/SGP4

EPOCH          = 2026-03-01T08:26:32.572896
MEAN_MOTION    = 14.26989049
ECCENTRICITY   = .0139389
INCLINATION    = 98.1988
RA_OF_ASC_NODE = 335.8542
ARG_OF_PERICENTER = 179.0480
MEAN_ANOMALY   = 181.0994

EPHEMERIS_TYPE = 0
CLASSIFICATION_TYPE = U
NORAD_CAT_ID   = 28480
ELEMENT_SET_NO = 999
REV_AT_EPOCH   = 10731
BSTAR          = .69686E-4
MEAN_MOTION_DOT = .147E-5
MEAN_MOTION_DDOT = 0

CCSDS_OMM_VERS = 2.0
CREATION_DATE  = 
ORIGINATOR     = 

OBJECT_NAME    = ARIANE 5 R/B
OBJECT_ID      = 2004-049H
CENTER_NAME    = EARTH
REF_FRAME      = TEME
TIME_SYSTEM    = UTC
MEAN_ELEMENT_THEORY = SGP/SGP4

EPOCH          = 2026-03-01T09:55:43.488192
MEAN_MOTION    = 14.85247794
ECCENTRICITY   = .008454
INCLINATION    = 98.2613
RA_OF_ASC_NODE = 228.5617
ARG_OF_PERICENTER = 18.7373
MEAN_ANOMALY   = 341.6920

EPHEMERIS_TYPE = 0
CLASSIFICATION_TYPE = U
NORAD_CAT_ID   = 28499
ELEMENT_SET_NO = 999
REV_AT_EPOCH   = 14456
BSTAR          = .10998E-3
MEAN_MOTION_DOT = .941E-5
MEAN_MOTION_DDOT = 0

CCSDS_OMM_VERS = 2.0
CREATION_DATE  = 
ORIGINATOR     = 

OBJECT_NAME    = CZ-2D R/B
OBJECT_ID      = 2005-024B
CENTER_NAME    = EARTH
REF_FRAME      = TEME
TIME_SYSTEM    = UTC
MEAN_ELEMENT_THEORY = SGP/SGP4

EPOCH          = 2026-03-01T11:56:09.754368
MEAN_MOTION    = 15.59296732
ECCENTRICITY   = .0007002
INCLINATION    = 97.3599
RA_OF_ASC_NODE = 75.3481
ARG_OF_PERICENTER = 66.6923
MEAN_ANOMALY   = 293.5070

EPHEMERIS_TYPE = 0
CLASSIFICATION_TYPE = U
NORAD_CAT_ID   = 28738
ELEMENT_SET_NO = 999
REV_AT_EPOCH   = 13850
BSTAR          = .57203E-3
MEAN_MOTION_DOT = .45104E-3
MEAN_MOTION_DDOT = 0

