IDEFIX & ARIANE 42P R/B 
1 27422U 02021B   26060.45504825  .00000322  00000+0  13910-3 0  9992
2 27422  98.5861 359.1602 0011107 207.2518 152.8083 14.31019250242840
AQUA                    
1 27424U 02022A   26060.48112219  .00001245  00000+0  25846-3 0  9996
2 27424  98.4159  27.6975 0000725  52.8383  58.4881 14.61953163267532
CZ-4B R/B               
1 27432U 02024C   26060.16096043  .00000039  00000+0  42748-4 0  9999
2 27432  98.8859 113.6099 0050853  48.1732  16.6442 14.14545846228032
MIDORI II (ADEOS-II)    
1 27597U 02056A   26060.47311985  .00000335  00000+0  14970-3 0  9999
2 27597  98.7754  18.8948 0001873  54.8868 305.2489 14.29277563209129
H-2A R/B                
1 27601U 02056E   26060.48195949  .00000315  00000+0  12481-3 0  9999
2 27601  98.3187  21.1607 0069986 185.0960 285.0558 14.33754373212938
CZ-4B R/B               
1 28059U 03049C   26060.47519873  .00000519  00000+0  13076-3 0  9992
2 28059  98.6871  55.0583 0047004 256.5231 103.0724 14.55010740185402
CZ-2C R/B               
1 28222U 04012C   26060.16327481  .00056738  00000+0  61200-3 0  9999
2 28222  97.7259 124.6543 0013521 344.3810  15.7028 15.63383863202943
SL-16 R/B               
1 28353U 04021B   26059.97151531 -.00000038  00000+0  52731-5 0  9996
2 28353  70.9991 250.7893 0003579  28.1552 331.9764 14.14599755121602
CZ-4B R/B               
1 28415U 04035C   26060.07411020  .00008955  00000+0  31693-3 0  9992
2 28415  97.3516  94.4208 0032092   2.6552 357.4853 15.28878305178598
CZ-2C R/B               
1 28480U 04046B   26060.35176589  .00000147  00000+0  69686-4 0  9994
2 28480  98.1988 335.8542 0139389 179.0480 181.0994 14.26989049107315
ARIANE 5 R/B            
1 28499U 04049H   26060.41369778  .00000941  00000+0  10998-3 0  9991
2 28499  98.2613 228.5617 0084540  18.7373 341.6920 14.85247794144560
CZ-2D R/B               
1 28738U 05024B   26060.49733512  .00045104  00000+0  57203-3 0  9990
2 28738  97.3599  75.3481 0007002  66.6923 293.5070 15.59296732138503
